#dP2021 12  5  0  0  0.00000000      96 __u+U ITR00 FIT  IAC
## 2187      0.00000000   900.00000000 59553 0.0000000000000
+  126   C01C02C03C04C05C06C07C08C09C10C11C12C13C14C16C19C20
+        C21C22C23C24C25C26C27C28C29C30C32C33C34C35C36C37C38
+        C39C40C41C42C43C44C45C46C60E01E02E03E04E05E07E08E09
+        E11E12E13E14E15E18E19E21E24E25E26E27E30E31E33E36G01
+        G02G03G04G05G06G07G08G09G10G12G13G14G15G16G17G18G19
+        G20G21G22G23G24G25G26G27G28G29G30G31G32J01J02J03J07
+        R01R02R03R04R05R06R07R08R09R10R11R12R13R14R15R16R17
+        R18R19R20R21R22R23R24  0  0  0  0  0  0  0  0  0  0
++        13 12 13 13 12  9  9 10  9  9  9  9 10  9  9  7  7
++         7  7  7  7  7  7  7  7  7  7  7  7  7  7  7  7  8
++         8  8  7  7  7  7  7  7 13  4  3  5  4  4  4  5  4
++         4  4  4  4  5  5  4  5  4  4  4  4  4  4  5  4  4
++         4  4  4  4  4  3  3  4  3  4  3  4  4  4  4  3  5
++         4  4  4  3  4  4  4  3  5  7  3  4  4  9  8  8 15
++         7  6  6  5  5 13  6  6  6 13  7  6  7  6  6  7  6
++         6  7  7  6  7 13  6  0  0  0  0  0  0  0  0  0  0
%c M  cc GPS ccc cccc cccc cccc cccc ccccc ccccc ccccc ccccc
%c cc cc ccc ccc cccc cccc cccc cccc ccccc ccccc ccccc ccccc
%f  0.0000000  0.000000000  0.00000000000  0.000000000000000
%f  0.0000000  0.000000000  0.00000000000  0.000000000000000
%i    0    0    0    0      0      0      0      0         0
%i    0    0    0    0      0      0      0      0         0
/* INFORMATION & ANALYSIS CENTER (IAC)            RAPID DATA
/* S/V CLOCKS ARE ALIGNED TO GNSS TIME                      
/* G:C1WC2W R:C1PC2P E:C1XC5X C:C2IC6I J:C1CC2S             
/* PCV:IGS14_2178 OL/AL:FES2004  NONE     YN ORB:CoN CLK:CoN
*  2021 12 05 22  0  0.00000000
PC01 -34314.768531  24458.825572    228.622996   -375.516152
PC02   4315.864698  41962.779756    789.374120    833.629997
PC03 -14836.222677  39447.923504   1141.920450    306.753817
PC04 -39613.104827  14359.601137    208.979807    311.543820
PC05  21897.145678  36034.491186    771.934189    324.228521
PC06 -16877.188409  35176.096188 -16254.236156    591.246575
PC07  -3029.662375  36543.802938 -20721.336791    156.521926
PC08  -6415.824658  20148.306779  36488.765582    -47.424001
PC09 -12619.543342  33977.195205 -21614.721187   -324.110563
PC10   4149.721279  39136.701470 -14259.056871    136.403619
PC11  20641.263459  -3355.056491  18569.144606   -351.113795
PC12   8594.186546  13028.098559  23174.493647   -423.969793
PC13   -625.723119  22660.771523  35684.858888   -187.101898
PC14  17145.240784   6639.435624 -20963.644844    507.665166
PC16 -21312.298357  34736.540123 -11156.100669     13.777612
PC19 -15178.861178   4520.634153  22994.110277    926.412208
PC20 -16528.911525 -15036.205852  16736.842477   -792.874704
PC21   7980.231159  26733.176555    -43.626899   -943.771072
PC22  -5015.253561  22192.291826  16140.051084   -968.982631
PC23  11332.337752 -13283.113476  21774.010062   -963.123172
PC24  24618.567162  11205.597393  -6945.318440   -954.164994
PC25  25371.201466  -2701.917182  11326.510176   -814.356441
PC26  10795.497945  16725.317680 -19582.788674    812.020967
PC27   -399.051498 -19402.868399 -20062.750803    640.540836
PC28  15697.108697 -22207.475715  -6270.716830      5.472259
PC29 -22119.865650  12738.045934 -11281.916271    483.681004
PC30 -16018.557572  -5293.625823 -22233.298407    488.041314
PC32  -8158.767371 -26687.761288     -2.244144   -957.926659
PC33  15200.664329  -4524.336913 -22962.719349   -963.667057
PC34  16589.352971   4515.522082  21970.867655   -521.305652
PC35 -15275.005663  22658.052676   5740.690545     32.663191
PC36 -25597.420734   1785.724205 -10933.682725   -823.389784
PC37  -9213.542437 -17038.787949  20092.276900   -905.774667
PC38 -17050.752295  19458.149061  33274.459147    194.505143
PC39 -22621.539491  35165.336079  -6100.434259     34.251679
PC40  -7337.217002  32577.168173 -25660.548355    223.941933
PC41   5204.418396 -21966.115019 -16356.124791   -915.605067
PC42  16375.208505  15869.694207 -16042.980046   -935.925810
PC43  22218.431178 -12091.850488  11759.379245   -956.288152
PC44    913.657835  19595.123607  19854.080951    488.615141
PC45 -11031.779829  13286.595940 -21913.492793    619.216226
PC46 -25203.658211 -10432.547856   5778.215616    -45.064661
PC60   7270.980987  41515.126687   1024.979964     -0.363982
PE01 -22318.038275 -19405.801265  -1030.021402   -531.806288
PE02  22399.053216  19334.899309   1187.074914    264.915475
PE03  12329.417532  15867.354940 -21741.694039   -503.286440
PE04 -17815.691405   5743.463526  22927.734969   -914.510337
PE05   -513.715919  28566.572871  -7748.206103   -228.689788
PE07  12893.236811 -24458.655693 -10580.405626   -614.468495
PE08  17670.792028  -6304.830094 -22903.896855   5893.677433
PE09 -12623.110160  24649.232113  10432.665509   5439.958158
PE11 -20622.202671  16203.019307  13729.089053   4950.560906
PE12 -28541.101063   5625.693760  -5495.069016   4875.444828
PE13  21056.332709 -16033.920405 -13250.043485    424.391203
PE14   2206.022121 -29135.552437 -12005.749614  -1664.438334
PE15  28511.638984  -5646.220478   5623.353927    776.968427
PE18  -8066.890130  23249.352141   3109.509305  -1830.404620
PE19 -10866.933812 -18171.611372  20678.804732    444.867652
PE21  -9524.759306 -23112.591157  15846.483989   -703.589921
PE24 -10542.891723  12907.845704 -24470.947433  -1263.933439
PE25   9333.826308  23084.708766 -16005.794519   -555.896912
PE26     86.008649 -16841.654230 -24333.787374   -535.889345
PE27   9477.939733 -13747.129104  24447.242408   -180.316458
PE30  23167.141997   4780.639291  17803.225419    -86.103373
PE31 -22733.356995  -3617.980326 -18591.362917   -488.975044
PE33 -19139.774192  -8019.779115 -21097.525554   -461.770212
PE36  -1252.784679  16945.712449  24244.843224   -299.771028
PG01  -6404.842841 -13803.213922 -22079.902162    491.936242
PG02 -16057.157098  15027.706485  15625.513594   -644.657397
PG03 -11623.785434 -22660.226808  -7827.221551    -32.587553
PG04  -2094.872506 -21896.513787  14831.839341   -199.975739
PG05  -1045.030774  18611.064518  18697.661793    -63.413116
PG06 -25875.647898   5696.770069   2348.360268    135.163364
PG07 -21411.621026  -7264.307302  14694.215288    287.231951
PG08   5536.739464 -25354.967993  -4758.563651    -46.939248
PG09 -11094.909661 -12426.333843  20605.053935   -360.930082
PG10  19854.508337   6449.926862 -16464.758356   -261.890899
PG12   8519.916257  23439.546420  -9584.172499   -136.474641
PG13 -13101.166213  22983.525926    879.044052    225.026127
PG14 -19735.515621  -6963.455495 -16389.665937    -50.340094
PG15  -2000.194614  25794.812999  -5580.182637   -101.339898
PG16   5702.339159 -15989.763214  20045.009795   -435.661651
PG17 -16090.790163   2113.778114 -20593.029300    543.397409
PG18  21817.271437   6444.999602  13786.424631    284.464818
PG19 -17905.096552  10237.019649 -16898.917734     88.357004
PG20 -10218.195968  11835.740019  21456.152538    517.781940
PG21   3313.854529 -15582.073297 -20463.647877    152.958975
PG22  -6165.472609 -21238.750537 -14687.544736   -448.346931
PG23  20222.098209  15669.384096  -7329.615858     25.105893
PG24   2189.249354  15808.124894 -21495.893017    272.908512
PG25  17154.273288  20471.599671    283.331611    251.294284
PG26  15851.070524  -5017.759473  20698.801996    162.160034
PG27  12307.676102 -22688.180879   5147.034164   -227.533222
PG28 -16591.123601     41.139273 -20153.719873    449.043572
PG29   6662.055150  16616.090865  19561.255838   -450.034360
PG30 -26139.601582   -334.920286   5433.577637   -497.012196
PG31  25570.874923  -6682.015949   4415.660555   -153.601091
PG32  16882.848716  -6589.672435 -19237.118546    -31.082328
PJ01 -28334.947100  23783.889628  25151.598989    108.755455
PJ02 -23421.547457  17393.936940 -25880.986713     -0.272435
PJ03 -28115.123584  31553.615957   5126.152690     -8.312314
PJ07 -25398.850511  33655.287276    -33.048628     -0.026478
PR01  -6276.474743 -23777.851941   6784.534766     89.077977
PR02 -10995.741515  -8076.800591  21572.108802    502.342838
PR03  -8963.513272  11150.182318  21170.214334     47.636789
PR04  -1881.382257  23801.666717   9019.603027    117.468832
PR05   6101.183136  23400.856832  -8156.963769     83.686731
PR06  11445.890450   6748.724759 -21796.219824    -19.735201
PR07   8751.762957 -11746.260051 -20837.795692    -39.449096
PR08   1791.905625 -23829.578675  -8832.511247    -62.389422
PR09  23822.430219   8410.499749   3267.743218     27.206947
PR10  18561.573503  -1126.853007  17491.473934    -77.703915
PR11   1962.570075 -10954.912615  22962.858708     49.369335
PR12 -15837.668476 -14281.915415  14002.155394    284.112702
PR13 -23758.444699  -9001.916470  -2258.704767    -64.447444
PR14 -17652.022855   1921.730051 -18306.546195     71.752157
PR15  -1426.761147  11304.284092 -22802.802209     99.790956
PR16  17239.193900  13856.529462 -12852.703125    -26.249874
PR17 -21385.067184  13458.616054  -3311.096599    480.991489
PR18 -13808.905057  16977.926015  13165.117596     99.506611
PR19   -137.708024  12084.522102  22467.547370   -169.588925
PR20  17005.841059  -1207.470434  18972.077210    -60.650490
PR21  21256.634096 -13997.220287   1946.153704   -259.948457
PR22  13127.392474 -16758.160068 -13990.348289   -149.570237
PR23  -6044.043004  -8463.460527 -23292.177151    -22.325234
PR24 -17616.869668   1800.637752 -18327.834470     69.928492
EOF
